{"fetched_at":"2026-07-17T06:37:49.595Z","source":"https://celestrak.org/NORAD/elements/gp.php?GROUP=kuiper&FORMAT=JSON","constellation":"kuiper","records":[{"OBJECT_NAME":"KUIPER-00114","OBJECT_ID":"2025-171V","EPOCH":"2026-07-16T18:36:52.067232","CLASSIFICATION_TYPE":"U","MEAN_MOTION":14.79932571,"ECCENTRICITY":0.0000542,"INCLINATION":51.9003,"RA_OF_ASC_NODE":324.7787,"ARG_OF_PERICENTER":68.9253,"MEAN_ANOMALY":291.1767,"EPHEMERIS_TYPE":0,"NORAD_CAT_ID":65151,"ELEMENT_SET_NO":999,"REV_AT_EPOCH":5175,"BSTAR":0.000084928,"MEAN_MOTION_DOT":0.00000426,"MEAN_MOTION_DDOT":0},{"OBJECT_NAME":"KUIPER-00115","OBJECT_ID":"2025-171W","EPOCH":"2026-07-16T17:11:16.299168","CLASSIFICATION_TYPE":"U","MEAN_MOTION":14.79932967,"ECCENTRICITY":0.0000465,"INCLINATION":51.9025,"RA_OF_ASC_NODE":317.5419,"ARG_OF_PERICENTER":135.265,"MEAN_ANOMALY":224.835,"EPHEMERIS_TYPE":0,"NORAD_CAT_ID":65152,"ELEMENT_SET_NO":999,"REV_AT_EPOCH":5185,"BSTAR":0.0000090381,"MEAN_MOTION_DOT":-0.00000152,"MEAN_MOTION_DDOT":0},{"OBJECT_NAME":"KUIPER-00116","OBJECT_ID":"2025-171X","EPOCH":"2026-07-16T16:14:51.236160","CLASSIFICATION_TYPE":"U","MEAN_MOTION":14.79948726,"ECCENTRICITY":0.0000402,"INCLINATION":51.9011,"RA_OF_ASC_NODE":322.7492,"ARG_OF_PERICENTER":0.1333,"MEAN_ANOMALY":359.9629,"EPHEMERIS_TYPE":0,"NORAD_CAT_ID":65153,"ELEMENT_SET_NO":999,"REV_AT_EPOCH":5177,"BSTAR":0.00019629,"MEAN_MOTION_DOT":0.00001276,"MEAN_MOTION_DDOT":0},{"OBJECT_NAME":"KUIPER-00118","OBJECT_ID":"2025-171Y","EPOCH":"2026-07-16T16:10:58.776096","CLASSIFICATION_TYPE":"U","MEAN_MOTION":14.79927167,"ECCENTRICITY":0.0000533,"INCLINATION":51.9011,"RA_OF_ASC_NODE":325.2124,"ARG_OF_PERICENTER":120.9672,"MEAN_ANOMALY":239.1343,"EPHEMERIS_TYPE":0,"NORAD_CAT_ID":65154,"ELEMENT_SET_NO":999,"REV_AT_EPOCH":5174,"BSTAR":0.00024787,"MEAN_MOTION_DOT":0.00001669,"MEAN_MOTION_DDOT":0},{"OBJECT_NAME":"KUIPER-00119","OBJECT_ID":"2025-171Z","EPOCH":"2026-07-16T18:07:40.086048","CLASSIFICATION_TYPE":"U","MEAN_MOTION":14.79938328,"ECCENTRICITY":0.0000034,"INCLINATION":51.9019,"RA_OF_ASC_NODE":312.4495,"ARG_OF_PERICENTER":290.3645,"MEAN_ANOMALY":69.7313,"EPHEMERIS_TYPE":0,"NORAD_CAT_ID":65155,"ELEMENT_SET_NO":999,"REV_AT_EPOCH":5192,"BSTAR":0.00022955,"MEAN_MOTION_DOT":0.0000153,"MEAN_MOTION_DDOT":0},{"OBJECT_NAME":"KUIPER-00120","OBJECT_ID":"2025-217A","EPOCH":"2026-07-16T10:50:45.622752","CLASSIFICATION_TYPE":"U","MEAN_MOTION":14.79934195,"ECCENTRICITY":0.0000436,"INCLINATION":51.8982,"RA_OF_ASC_NODE":203.6692,"ARG_OF_PERICENTER":74.5074,"MEAN_ANOMALY":285.5937,"EPHEMERIS_TYPE":0,"NORAD_CAT_ID":65762,"ELEMENT_SET_NO":999,"REV_AT_EPOCH":4380,"BSTAR":0.00015676,"MEAN_MOTION_DOT":0.00000974,"MEAN_MOTION_DDOT":0},{"OBJECT_NAME":"KUIPER-00132","OBJECT_ID":"2025-217B","EPOCH":"2026-07-16T17:51:40.695264","CLASSIFICATION_TYPE":"U","MEAN_MOTION":15.43358459,"ECCENTRICITY":0.0007493,"INCLINATION":51.8547,"RA_OF_ASC_NODE":95.1342,"ARG_OF_PERICENTER":69.214,"MEAN_ANOMALY":290.9651,"EPHEMERIS_TYPE":0,"NORAD_CAT_ID":65763,"ELEMENT_SET_NO":999,"REV_AT_EPOCH":4533,"BSTAR":0.00046108,"MEAN_MOTION_DOT":0.00020563,"MEAN_MOTION_DDOT":0},{"OBJECT_NAME":"KUIPER-00133","OBJECT_ID":"2025-217C","EPOCH":"2026-07-16T05:10:25.802688","CLASSIFICATION_TYPE":"U","MEAN_MOTION":14.79934254,"ECCENTRICITY":0.0000438,"INCLINATION":51.903,"RA_OF_ASC_NODE":204.8244,"ARG_OF_PERICENTER":73.2289,"MEAN_ANOMALY":286.8722,"EPHEMERIS_TYPE":0,"NORAD_CAT_ID":65764,"ELEMENT_SET_NO":999,"REV_AT_EPOCH":4377,"BSTAR":0.00015978,"MEAN_MOTION_DOT":0.00000997,"MEAN_MOTION_DDOT":0},{"OBJECT_NAME":"KUIPER-00139","OBJECT_ID":"2025-217D","EPOCH":"2026-07-16T07:38:06.432864","CLASSIFICATION_TYPE":"U","MEAN_MOTION":14.79938638,"ECCENTRICITY":0.000069,"INCLINATION":51.8977,"RA_OF_ASC_NODE":171.8276,"ARG_OF_PERICENTER":71.6252,"MEAN_ANOMALY":288.4785,"EPHEMERIS_TYPE":0,"NORAD_CAT_ID":65765,"ELEMENT_SET_NO":999,"REV_AT_EPOCH":4424,"BSTAR":0.00017478,"MEAN_MOTION_DOT":0.00001112,"MEAN_MOTION_DDOT":0},{"OBJECT_NAME":"KUIPER-00142","OBJECT_ID":"2025-217E","EPOCH":"2026-07-16T04:48:54.565920","CLASSIFICATION_TYPE":"U","MEAN_MOTION":14.79940273,"ECCENTRICITY":0.0000544,"INCLINATION":51.8986,"RA_OF_ASC_NODE":187.3078,"ARG_OF_PERICENTER":64.6917,"MEAN_ANOMALY":295.4101,"EPHEMERIS_TYPE":0,"NORAD_CAT_ID":65766,"ELEMENT_SET_NO":999,"REV_AT_EPOCH":4401,"BSTAR":0.00017409,"MEAN_MOTION_DOT":0.00001106,"MEAN_MOTION_DDOT":0},{"OBJECT_NAME":"KUIPER-00145","OBJECT_ID":"2025-217F","EPOCH":"2026-07-16T06:22:24.607776","CLASSIFICATION_TYPE":"U","MEAN_MOTION":14.79920022,"ECCENTRICITY":0.0000611,"INCLINATION":51.8996,"RA_OF_ASC_NODE":189.5437,"ARG_OF_PERICENTER":63.7803,"MEAN_ANOMALY":296.3222,"EPHEMERIS_TYPE":0,"NORAD_CAT_ID":65767,"ELEMENT_SET_NO":999,"REV_AT_EPOCH":4398,"BSTAR":0.00016007,"MEAN_MOTION_DOT":0.00000999,"MEAN_MOTION_DDOT":0},{"OBJECT_NAME":"KUIPER-00147","OBJECT_ID":"2025-217G","EPOCH":"2026-07-16T11:58:44.820768","CLASSIFICATION_TYPE":"U","MEAN_MOTION":14.79941449,"ECCENTRICITY":0.0000387,"INCLINATION":51.8972,"RA_OF_ASC_NODE":190.9883,"ARG_OF_PERICENTER":83.1664,"MEAN_ANOMALY":276.9343,"EPHEMERIS_TYPE":0,"NORAD_CAT_ID":65768,"ELEMENT_SET_NO":999,"REV_AT_EPOCH":4398,"BSTAR":0.00013599,"MEAN_MOTION_DOT":0.00000816,"MEAN_MOTION_DDOT":0},{"OBJECT_NAME":"KUIPER-00148","OBJECT_ID":"2025-217H","EPOCH":"2026-07-16T20:00:01.999008","CLASSIFICATION_TYPE":"U","MEAN_MOTION":14.798697,"ECCENTRICITY":0.0000443,"INCLINATION":51.9032,"RA_OF_ASC_NODE":172.0244,"ARG_OF_PERICENTER":56.8452,"MEAN_ANOMALY":184.5854,"EPHEMERIS_TYPE":0,"NORAD_CAT_ID":65769,"ELEMENT_SET_NO":999,"REV_AT_EPOCH":510,"BSTAR":0.0070339,"MEAN_MOTION_DOT":0.0005375,"MEAN_MOTION_DDOT":0},{"OBJECT_NAME":"KUIPER-00150","OBJECT_ID":"2025-217J","EPOCH":"2026-07-16T05:14:14.126784","CLASSIFICATION_TYPE":"U","MEAN_MOTION":14.79969862,"ECCENTRICITY":0.0000542,"INCLINATION":51.9,"RA_OF_ASC_NODE":202.2673,"ARG_OF_PERICENTER":69.2598,"MEAN_ANOMALY":290.8422,"EPHEMERIS_TYPE":0,"NORAD_CAT_ID":65770,"ELEMENT_SET_NO":999,"REV_AT_EPOCH":4380,"BSTAR":0.00069104,"MEAN_MOTION_DOT":0.00005055,"MEAN_MOTION_DDOT":0},{"OBJECT_NAME":"KUIPER-00151","OBJECT_ID":"2025-217K","EPOCH":"2026-07-16T07:03:07.513344","CLASSIFICATION_TYPE":"U","MEAN_MOTION":14.79941614,"ECCENTRICITY":0.0000504,"INCLINATION":51.9005,"RA_OF_ASC_NODE":194.43,"ARG_OF_PERICENTER":60.9514,"MEAN_ANOMALY":299.1499,"EPHEMERIS_TYPE":0,"NORAD_CAT_ID":65771,"ELEMENT_SET_NO":999,"REV_AT_EPOCH":4392,"BSTAR":0.00016457,"MEAN_MOTION_DOT":0.00001034,"MEAN_MOTION_DDOT":0},{"OBJECT_NAME":"KUIPER-00152","OBJECT_ID":"2025-217L","EPOCH":"2026-07-16T08:11:15.221760","CLASSIFICATION_TYPE":"U","MEAN_MOTION":14.79931576,"ECCENTRICITY":0.0000525,"INCLINATION":51.8997,"RA_OF_ASC_NODE":181.7054,"ARG_OF_PERICENTER":67.9632,"MEAN_ANOMALY":292.1386,"EPHEMERIS_TYPE":0,"NORAD_CAT_ID":65772,"ELEMENT_SET_NO":999,"REV_AT_EPOCH":4410,"BSTAR":0.00016662,"MEAN_MOTION_DOT":0.00001049,"MEAN_MOTION_DDOT":0}]}
