KUIPER-00114            
1 65151U 25171V   26197.77560263  .00000426  00000+0  84928-4 0  9991
2 65151  51.9003 324.7787 0000542  68.9253 291.1767 14.79932571 51759
KUIPER-00115            
1 65152U 25171W   26197.71616087 -.00000152  00000+0  90381-5 0  9990
2 65152  51.9025 317.5419 0000465 135.2650 224.8350 14.79932967 51850
KUIPER-00116            
1 65153U 25171X   26197.67698190  .00001276  00000+0  19629-3 0  9992
2 65153  51.9011 322.7492 0000402   0.1333 359.9629 14.79948726 51774
KUIPER-00118            
1 65154U 25171Y   26197.67429139  .00001669  00000+0  24787-3 0  9995
2 65154  51.9011 325.2124 0000533 120.9672 239.1343 14.79927167 51742
KUIPER-00119            
1 65155U 25171Z   26197.75532507  .00001530  00000+0  22955-3 0  9991
2 65155  51.9019 312.4495 0000034 290.3645  69.7313 14.79938328 51923
KUIPER-00120            
1 65762U 25217A   26197.45191693  .00000974  00000+0  15676-3 0  9993
2 65762  51.8982 203.6692 0000436  74.5074 285.5937 14.79934195 43805
KUIPER-00132            
1 65763U 25217B   26197.74422101  .00020563  00000+0  46108-3 0  9997
2 65763  51.8547  95.1342 0007493  69.2140 290.9651 15.43358459 45332
KUIPER-00133            
1 65764U 25217C   26197.21557642  .00000997  00000+0  15978-3 0  9999
2 65764  51.9030 204.8244 0000438  73.2289 286.8722 14.79934254 43772
KUIPER-00139            
1 65765U 25217D   26197.31813001  .00001112  00000+0  17478-3 0  9992
2 65765  51.8977 171.8276 0000690  71.6252 288.4785 14.79938638 44242
KUIPER-00142            
1 65766U 25217E   26197.20063155  .00001106  00000+0  17409-3 0  9995
2 65766  51.8986 187.3078 0000544  64.6917 295.4101 14.79940273 44016
KUIPER-00145            
1 65767U 25217F   26197.26556259  .00000999  00000+0  16007-3 0  9996
2 65767  51.8996 189.5437 0000611  63.7803 296.3222 14.79920022 43989
KUIPER-00147            
1 65768U 25217G   26197.49912987  .00000816  00000+0  13599-3 0  9997
2 65768  51.8972 190.9883 0000387  83.1664 276.9343 14.79941449 43980
KUIPER-00148            
1 65769U 25217H   26197.83335647  .00053750  00000+0  70339-2 0  9997
2 65769  51.9032 172.0244 0000443  56.8452 184.5854 14.79869700  5108
KUIPER-00150            
1 65770U 25217J   26197.21821906  .00005055  00000+0  69104-3 0  9993
2 65770  51.9000 202.2673 0000542  69.2598 290.8422 14.79969862 43807
KUIPER-00151            
1 65771U 25217K   26197.29383696  .00001034  00000+0  16457-3 0  9997
2 65771  51.9005 194.4300 0000504  60.9514 299.1499 14.79941614 43920
KUIPER-00152            
1 65772U 25217L   26197.34114840  .00001049  00000+0  16662-3 0  9991
2 65772  51.8997 181.7054 0000525  67.9632 292.1386 14.79931576 44101
